ONEWEB-0156             
1 48052U 21025L   23294.07278136  .00000321  00000+0  84309-3 0  9995
2 48052  87.8950 153.2554 0001611  80.3026 279.8285 13.13470144126234
ONEWEB-0161             
1 48053U 21025M   23293.58819598  .00000099  00000+0  23727-3 0  9993
2 48053  87.9016 153.3554 0001449  80.9328 279.1965 13.13471228126108
ONEWEB-0158             
1 48054U 21025N   23294.08549952  .00000742  00000+0  19976-2 0  9999
2 48054  87.8946 153.2575 0001875  75.9946 284.1391 13.13458680126280
ONEWEB-0157             
1 48055U 21025P   23294.33727503  .00000027  00000+0  38126-4 0  9994
2 48055  87.9023 153.2133 0001550  84.7898 275.3408 13.13466405126265
ONEWEB-0162             
1 48056U 21025Q   23294.07066668  .00000349  00000+0  92082-3 0  9991
2 48056  87.9023 153.2643 0001647  84.0069 276.1248 13.13470387126177
ONEWEB-0155             
1 48057U 21025R   23294.32035790 -.00000118  00000+0 -35709-3 0  9991
2 48057  87.9023 153.2218 0001628  77.7044 282.4267 13.13470456126377
ONEWEB-0149             
1 48058U 21025S   23293.12266508 -.00000281  00000+0 -80529-3 0  9993
2 48058  87.9025 153.4574 0001747  91.8956 268.2373 13.13471087126021
ONEWEB-0148             
1 48059U 21025T   23294.07700803  .00000205  00000+0  52651-3 0  9999
2 48059  87.9025 153.2739 0001740 112.1171 248.0143 13.13471203126269
